NORAD_CAT_ID,OBJECT_NAME,OBJECT_TYPE,EPOCH,MEAN_MOTION,ECCENTRICITY,INCLINATION,RA_OF_ASC_NODE,ARG_OF_PERICENTER,MEAN_ANOMALY,BSTAR,MEAN_MOTION_DOT,MEAN_MOTION_DDOT,TLE_LINE0,TLE_LINE1,TLE_LINE2,SEMIMAJOR_AXIS,PERIOD,APOGEE,PERIGEE,DECAYED
53858.0,STARLINK-4798,PAYLOAD,2024-06-23 09:46:14,15.08831888,0.0001375,53.2164,206.8313,83.9514,276.1635,2.2184e-05,6.5e-07,0.0,0 STARLINK-4798,1 53858U 22114AS  24175.40711133  .00000065  00000-0  22184-4 0  9990,2 53858  53.2164 206.8313 0001375  83.9514 276.1635 15.08831888 98323,6917.905,95.438,540.721,538.819,0.0
53858.0,STARLINK-4798,PAYLOAD,2024-06-24 08:01:38,15.08836537,0.0001286,53.2161,202.6675,91.2432,268.8708,0.00014981,2.097e-05,0.0,0 STARLINK-4798,1 53858U 22114AS  24176.33446767  .00002097  00000-0  14981-3 0  9993,2 53858  53.2161 202.6675 0001286  91.2432 268.8708 15.08836537 98467,6917.891,95.438,540.646,538.866,0.0
53858.0,STARLINK-4798,PAYLOAD,2024-06-25 07:52:24,15.08848794,0.0001315,53.2162,198.207,87.2052,272.9091,0.00014315,1.992e-05,0.0,0 STARLINK-4798,1 53858U 22114AS  24177.32805978  .00001992  00000-0  14315-3 0  9990,2 53858  53.2162 198.2070 0001315  87.2052 272.9091 15.08848794 98619,6917.854,95.437,540.628,538.809,0.0
53858.0,STARLINK-4798,PAYLOAD,2024-06-26 07:43:11,15.08851275,0.0001279,53.2157,193.7454,84.9107,275.2031,4.5037e-05,4.29e-06,0.0,0 STARLINK-4798,1 53858U 22114AS  24178.32165581  .00000429  00000-0  45037-4 0  9990,2 53858  53.2157 193.7454 0001279  84.9107 275.2031 15.08851275 99308,6917.846,95.437,540.596,538.826,0.0
53858.0,STARLINK-4798,PAYLOAD,2024-06-27 04:23:12,15.08842838,0.0001294,53.2152,189.88,93.6347,266.4793,-2.9389e-05,-7.56e-06,0.0,0 STARLINK-4798,1 53858U 22114AS  24179.18277967 -.00000756  00000-0 -29389-4 0  9994,2 53858  53.2152 189.8800 0001294  93.6347 266.4793 15.08842838 98899,6917.872,95.437,540.632,538.842,0.0
53858.0,STARLINK-4798,PAYLOAD,2024-06-27 17:06:17,15.08840541,0.0001265,53.2149,187.5023,88.0751,272.0386,-5.0639e-05,-1.094e-05,0.0,0 STARLINK-4798,1 53858U 22114AS  24179.71270083 -.00001094  00000-0 -50639-4 0  9993,2 53858  53.2149 187.5023 0001265  88.0751 272.0386 15.08840541 99512,6917.879,95.438,540.619,538.869,0.0
53858.0,STARLINK-4798,PAYLOAD,2024-06-28 07:24:45,15.08840668,0.0001195,53.2144,184.8258,86.3457,273.7672,4.2451e-06,-2.2e-06,0.0,0 STARLINK-4798,1 53858U 22114AS  24180.30885872 -.00000220  00000-0  42451-5 0  9991,2 53858  53.2144 184.8258 0001195  86.3457 273.7672 15.08840668 99069,6917.878,95.438,540.57,538.917,0.0
53858.0,STARLINK-4798,PAYLOAD,2024-06-29 05:40:09,15.08831965,0.0001224,53.2148,180.6629,87.0627,273.0505,3.0507e-05,1.98e-06,0.0,0 STARLINK-4798,1 53858U 22114AS  24181.23622655  .00000198  00000-0  30507-4 0  9993,2 53858  53.2148 180.6629 0001224  87.0627 273.0505 15.08831965 99203,6917.905,95.438,540.617,538.923,0.0
53858.0,STARLINK-4798,PAYLOAD,2024-06-29 10:26:19,15.08834753,0.0001225,53.2147,179.7704,85.5303,274.5829,4.9e-05,4.92e-06,0.0,0 STARLINK-4798,1 53858U 22114AS  24181.43494499  .00000492  00000-0  49000-4 0  9993,2 53858  53.2147 179.7704 0001225  85.5303 274.5829 15.08834753 99775,6917.896,95.438,540.609,538.914,0.0
53858.0,STARLINK-4798,PAYLOAD,2024-06-30 08:41:43,15.08832431,0.000116,53.2142,175.6066,83.6855,276.4269,3.7145e-05,3.03e-06,0.0,0 STARLINK-4798,1 53858U 22114AS  24182.36230965  .00000303  00000-0  37145-4 0  9990,2 53858  53.2142 175.6066 0001160  83.6855 276.4269 15.08832431 99371,6917.904,95.438,540.571,538.966,0.0
53858.0,STARLINK-4798,PAYLOAD,2024-06-30 16:38:39,15.08831098,0.0001203,53.2147,174.1203,88.5268,271.5862,1.6462e-05,-2.6e-07,0.0,0 STARLINK-4798,1 53858U 22114AS  24182.69351242 -.00000026  00000-0  16462-4 0  9990,2 53858  53.2147 174.1203 0001203  88.5268 271.5862 15.08831098 99961,6917.908,95.438,540.605,538.94,0.0
53858.0,STARLINK-4798,PAYLOAD,2024-07-01 06:57:07,15.08838224,0.0001194,53.2146,171.4434,89.6464,270.4665,6.0529e-05,6.76e-06,0.0,0 STARLINK-4798,1 53858U 22114AS  24183.28966879  .00000676  00000-0  60529-4 0  9997,2 53858  53.2146 171.4434 0001194  89.6464 270.4665 15.08838224100055,6917.886,95.438,540.577,538.925,0.0
53858.0,STARLINK-4798,PAYLOAD,2024-07-01 16:29:26,15.08840403,0.0001211,53.2149,169.6593,88.8869,271.2262,6.9264e-05,8.15e-06,0.0,0 STARLINK-4798,1 53858U 22114AS  24183.68710735  .00000815  00000-0  69264-4 0  9999,2 53858  53.2149 169.6593 0001211  88.8869 271.2262 15.08840403 99571,6917.879,95.438,540.582,538.906,0.0
53858.0,STARLINK-4798,PAYLOAD,2024-07-01 22:50:58,15.08841478,0.000124,53.2148,168.4695,89.1739,270.9396,6.6786e-05,7.75e-06,0.0,0 STARLINK-4798,1 53858U 22114AS  24183.95206680  .00000775  00000-0  66786-4 0  9999,2 53858  53.2148 168.4695 0001240  89.1739 270.9396 15.08841478100156,6917.876,95.437,540.599,538.883,0.0
53858.0,STARLINK-4798,PAYLOAD,2024-07-02 08:23:17,15.08843734,0.0001329,53.2151,166.6851,88.6317,271.4828,0.00013724,1.897e-05,0.0,0 STARLINK-4798,1 53858U 22114AS  24184.34950298  .00001897  00000-0  13724-3 0  9993,2 53858  53.2151 166.6851 0001329  88.6317 271.4828 15.08843734100218,6917.869,95.437,540.653,538.815,0.0
53858.0,STARLINK-4798,PAYLOAD,2024-07-02 22:41:45,15.08842318,0.000137,53.2157,164.0095,88.0098,272.1051,6.9194e-05,8.14e-06,0.0,0 STARLINK-4798,1 53858U 22114AS  24184.94566532  .00000814  00000-0  69194-4 0  9994,2 53858  53.2157 164.0095 0001370  88.0098 272.1051 15.08842318100305,6917.873,95.437,540.686,538.791,0.0
53858.0,STARLINK-4798,PAYLOAD,2024-07-03 05:03:17,15.08845521,0.0001388,53.2159,162.8198,89.5167,270.5984,7.5999e-05,9.22e-06,0.0,0 STARLINK-4798,1 53858U 22114AS  24185.21062229  .00000922  00000-0  75999-4 0  9999,2 53858  53.2159 162.8198 0001388  89.5167 270.5984 15.08845521 99807,6917.864,95.437,540.689,538.768,0.0
53858.0,STARLINK-4798,PAYLOAD,2024-07-03 08:14:03,15.08847701,0.0001392,53.2159,162.2248,90.4292,269.686,8.9632e-05,1.139e-05,0.0,0 STARLINK-4798,1 53858U 22114AS  24185.34309986  .00001139  00000-0  89632-4 0  9997,2 53858  53.2159 162.2248 0001392  90.4292 269.6860 15.08847701100360,6917.857,95.437,540.685,538.759,0.0
53858.0,STARLINK-4798,PAYLOAD,2024-07-04 04:54:05,15.0884038,0.0001397,53.2164,158.3575,99.3514,260.7636,-4.3928e-05,-9.87e-06,0.0,0 STARLINK-4798,1 53858U 22114AS  24186.20422641 -.00000987  00000-0 -43928-4 0  9997,2 53858  53.2164 158.3575 0001397  99.3514 260.7636 15.08840380 99956,6917.879,95.438,540.711,538.778,0.0
53858.0,STARLINK-4798,PAYLOAD,2024-07-04 08:04:51,15.08840904,0.0001314,53.216,157.7631,96.3244,263.7898,-4.8223e-05,-1.055e-05,0.0,0 STARLINK-4798,1 53858U 22114AS  24186.33670599 -.00001055  00000-0 -48223-4 0  9998,2 53858  53.2160 157.7631 0001314  96.3244 263.7898 15.08840904100514,6917.878,95.437,540.652,538.834,0.0
53858.0,STARLINK-4798,PAYLOAD,2024-07-05 07:55:38,15.088445,0.0001185,53.216,153.3047,90.5936,269.5192,7.8646e-06,-1.63e-06,0.0,0 STARLINK-4798,1 53858U 22114AS  24187.33030180 -.00000163  00000-0  78646-5 0  9996,2 53858  53.2160 153.3047 0001185  90.5936 269.5192 15.08844500100121,6917.867,95.437,540.551,538.912,0.0
53858.0,STARLINK-4798,PAYLOAD,2024-07-05 14:17:10,15.08840409,0.0001053,53.215,152.1147,92.4896,267.6217,-4.0629e-05,-9.34e-06,0.0,0 STARLINK-4798,1 53858U 22114AS  24187.59526558 -.00000934  00000-0 -40629-4 0  9999,2 53858  53.2150 152.1147 0001053  92.4896 267.6217 15.08840409100703,6917.879,95.438,540.473,539.016,0.0
53858.0,STARLINK-4798,PAYLOAD,2024-07-05 22:14:07,15.0883338,0.0001126,53.2156,150.6279,89.7808,270.3314,-3.3022e-05,-8.13e-06,0.0,0 STARLINK-4798,1 53858U 22114AS  24187.92647218 -.00000813  00000-0 -33022-4 0  9998,2 53858  53.2156 150.6279 0001126  89.7808 270.3314 15.08833380100755,6917.901,95.438,540.545,538.987,0.0
53858.0,STARLINK-4798,PAYLOAD,2024-07-06 04:35:39,15.08837961,0.0001182,53.2163,149.4414,94.5558,265.557,2.2224e-05,6.6e-07,0.0,0 STARLINK-4798,1 53858U 22114AS  24188.19142812  .00000066  00000-0  22224-4 0  9998,2 53858  53.2163 149.4414 0001182  94.5558 265.5570 15.08837961100252,6917.887,95.438,540.569,538.934,0.0
53858.0,STARLINK-4798,PAYLOAD,2024-07-06 14:07:58,15.08839125,0.0001255,53.2168,147.6563,92.8226,267.291,7.7137e-06,-1.65e-06,0.0,0 STARLINK-4798,1 53858U 22114AS  24188.58886757 -.00000165  00000-0  77137-5 0  9999,2 53858  53.2168 147.6563 0001255  92.8226 267.2910 15.08839125100853,6917.883,95.438,540.616,538.88,0.0
53858.0,STARLINK-4798,PAYLOAD,2024-07-06 20:29:31,15.08830262,0.0001274,53.2161,146.4674,100.3377,259.7759,1.6938e-05,-1.8e-07,0.0,0 STARLINK-4798,1 53858U 22114AS  24188.85383408 -.00000018  00000-0  16938-4 0  9992,2 53858  53.2161 146.4674 0001274 100.3377 259.7759 15.08830262100354,6917.91,95.438,540.656,538.894,0.0
53858.0,STARLINK-4798,PAYLOAD,2024-07-07 07:37:13,15.0883789,0.000132,53.2171,144.3857,98.7014,261.4128,1.6645e-05,-2.3e-07,0.0,0 STARLINK-4798,1 53858U 22114AS  24189.31751209 -.00000023  00000-0  16645-4 0  9993,2 53858  53.2171 144.3857 0001320  98.7014 261.4128 15.08837890100966,6917.887,95.438,540.665,538.839,0.0
53858.0,STARLINK-4798,PAYLOAD,2024-07-08 01:06:27,15.08839163,0.0001577,53.2184,141.115,105.5633,254.5534,4.5733e-05,4.4e-06,0.0,0 STARLINK-4798,1 53858U 22114AS  24190.04615207  .00000440  00000-0  45733-4 0  9994,2 53858  53.2184 141.1150 0001577 105.5633 254.5534 15.08839163100531,6917.883,95.438,540.839,538.657,0.0
53858.0,STARLINK-4798,PAYLOAD,2024-07-08 13:49:32,15.08840225,0.0001206,53.216,138.7343,85.295,274.818,3.9196e-05,3.36e-06,0.0,0 STARLINK-4798,1 53858U 22114AS  24190.57607163  .00000336  00000-0  39196-4 0  9994,2 53858  53.2160 138.7343 0001206  85.2950 274.8180 15.08840225101158,6917.88,95.438,540.579,538.91,0.0
53858.0,STARLINK-4798,PAYLOAD,2024-07-09 04:08:00,15.08839105,0.0001184,53.2154,136.0591,80.8314,279.2812,0.00010178,1.332e-05,0.0,0 STARLINK-4798,1 53858U 22114AS  24191.17223161  .00001332  00000-0  10178-3 0  9998,2 53858  53.2154 136.0591 0001184  80.8314 279.2812 15.08839105100703,6917.883,95.438,540.567,538.929,0.0
